{
  "type": "FeatureCollection",
  "features": [
    {
      "type": "Feature",
      "properties": {
        "norad_id": 66774,
        "name": "TRANSPORTER-15DN",
        "group": "last-30-days",
        "lat": 33.43924295941614,
        "lon": 65.9601593333941,
        "alt_km": 506.99191754926414,
        "timestamp": "2025-12-25T07:41:08.449228+00:00",
        "meta_object_name": "TRANSPORTER-15DN",
        "meta_object_id": "2025-276DN",
        "meta_epoch": "2025-12-24T22:02:56.830848",
        "meta_mean_motion": 15.18609245,
        "meta_eccentricity": 0.000306,
        "meta_inclination": 97.4412,
        "meta_ra_of_asc_node": 70.5163,
        "meta_arg_of_pericenter": 96.0951,
        "meta_mean_anomaly": 264.0632,
        "meta_ephemeris_type": 0,
        "meta_classification_type": "U",
        "meta_norad_cat_id": 66774,
        "meta_element_set_no": 999,
        "meta_rev_at_epoch": 397,
        "meta_bstar": 0.00037931977,
        "meta_mean_motion_dot": 7.784e-05,
        "meta_mean_motion_ddot": 0,
        "tle_line1": "1 66774U 25276DN  25358.91871332  .00007784  00000+0  37932-3 0  9991",
        "tle_line2": "2 66774  97.4412  70.5163 0003060  96.0951 264.0632 15.18609245  3973"
      },
      "geometry": {
        "type": "Point",
        "coordinates": [
          65.9601593333941,
          33.43924295941614
        ]
      }
    },
    {
      "type": "Feature",
      "properties": {
        "norad_id": 66775,
        "name": "PHI 1",
        "group": "last-30-days",
        "lat": 38.17478019136038,
        "lon": 64.99798417033382,
        "alt_km": 505.33270608299154,
        "timestamp": "2025-12-25T07:41:08.449238+00:00",
        "meta_object_name": "PHI 1",
        "meta_object_id": "2025-276DP",
        "meta_epoch": "2025-12-24T22:01:42.728160",
        "meta_mean_motion": 15.18673838,
        "meta_eccentricity": 0.00027991,
        "meta_inclination": 97.4336,
        "meta_ra_of_asc_node": 70.4942,
        "meta_arg_of_pericenter": 65.5461,
        "meta_mean_anomaly": 294.6065,
        "meta_ephemeris_type": 0,
        "meta_classification_type": "U",
        "meta_norad_cat_id": 66775,
        "meta_element_set_no": 999,
        "meta_rev_at_epoch": 397,
        "meta_bstar": 0.00036783925,
        "meta_mean_motion_dot": 7.561e-05,
        "meta_mean_motion_ddot": 0,
        "tle_line1": "1 66775U 25276DP  25358.91785565  .00007561  00000+0  36784-3 0  9991",
        "tle_line2": "2 66775  97.4336  70.4942 0002799  65.5461 294.6065 15.18673838  3976"
      },
      "geometry": {
        "type": "Point",
        "coordinates": [
          64.99798417033382,
          38.17478019136038
        ]
      }
    },
    {
      "type": "Feature",
      "properties": {
        "norad_id": 66776,
        "name": "TRANSPORTER-15DQ",
        "group": "last-30-days",
        "lat": 40.52500139952051,
        "lon": 64.49129715775054,
        "alt_km": 504.9787720475133,
        "timestamp": "2025-12-25T07:41:08.449250+00:00",
        "meta_object_name": "TRANSPORTER-15DQ",
        "meta_object_id": "2025-276DQ",
        "meta_epoch": "2025-12-24T20:26:13.658208",
        "meta_mean_motion": 15.18725055,
        "meta_eccentricity": 0.00029054,
        "meta_inclination": 97.4375,
        "meta_ra_of_asc_node": 70.4418,
        "meta_arg_of_pericenter": 81.4246,
        "meta_mean_anomaly": 278.7318,
        "meta_ephemeris_type": 0,
        "meta_classification_type": "U",
        "meta_norad_cat_id": 66776,
        "meta_element_set_no": 999,
        "meta_rev_at_epoch": 396,
        "meta_bstar": 0.00053949438,
        "meta_mean_motion_dot": 0.00011142,
        "meta_mean_motion_ddot": 0,
        "tle_line1": "1 66776U 25276DQ  25358.85154697  .00011142  00000+0  53949-3 0  9993",
        "tle_line2": "2 66776  97.4375  70.4418 0002905  81.4246 278.7318 15.18725055  3967"
      },
      "geometry": {
        "type": "Point",
        "coordinates": [
          64.49129715775054,
          40.52500139952051
        ]
      }
    },
    {
      "type": "Feature",
      "properties": {
        "norad_id": 66777,
        "name": "TRANSPORTER-15DR",
        "group": "last-30-days",
        "lat": 54.89755298086697,
        "lon": 60.21366310170246,
        "alt_km": 502.2266236257128,
        "timestamp": "2025-12-25T07:41:08.449261+00:00",
        "meta_object_name": "TRANSPORTER-15DR",
        "meta_object_id": "2025-276DR",
        "meta_epoch": "2025-12-24T20:22:28.581024",
        "meta_mean_motion": 15.18962143,
        "meta_eccentricity": 0.00035412,
        "meta_inclination": 97.4463,
        "meta_ra_of_asc_node": 70.4733,
        "meta_arg_of_pericenter": 108.0754,
        "meta_mean_anomaly": 252.0866,
        "meta_ephemeris_type": 0,
        "meta_classification_type": "U",
        "meta_norad_cat_id": 66777,
        "meta_element_set_no": 999,
        "meta_rev_at_epoch": 396,
        "meta_bstar": 0.00061904741,
        "meta_mean_motion_dot": 0.00012886,
        "meta_mean_motion_ddot": 0,
        "tle_line1": "1 66777U 25276DR  25358.84894191  .00012886  00000+0  61905-3 0  9990",
        "tle_line2": "2 66777  97.4463  70.4733 0003541 108.0754 252.0866 15.18962143  3967"
      },
      "geometry": {
        "type": "Point",
        "coordinates": [
          60.21366310170246,
          54.89755298086697
        ]
      }
    },
    {
      "type": "Feature",
      "properties": {
        "norad_id": 66778,
        "name": "TRANSPORTER-15DS",
        "group": "last-30-days",
        "lat": -60.39746281386832,
        "lon": -122.4558292263996,
        "alt_km": 524.9525438592109,
        "timestamp": "2025-12-25T07:41:08.449271+00:00",
        "meta_object_name": "TRANSPORTER-15DS",
        "meta_object_id": "2025-276DS",
        "meta_epoch": "2025-12-18T19:26:21.991200",
        "meta_mean_motion": 15.16535337,
        "meta_eccentricity": 0.00032319,
        "meta_inclination": 97.4427,
        "meta_ra_of_asc_node": 64.4586,
        "meta_arg_of_pericenter": 41.3734,
        "meta_mean_anomaly": 318.7744,
        "meta_ephemeris_type": 0,
        "meta_classification_type": "U",
        "meta_norad_cat_id": 66778,
        "meta_element_set_no": 999,
        "meta_rev_at_epoch": 304,
        "meta_bstar": 0.00025483693,
        "meta_mean_motion_dot": 4.904e-05,
        "meta_mean_motion_ddot": 0,
        "tle_line1": "1 66778U 25276DS  25352.80997675  .00004904  00000+0  25484-3 0  9996",
        "tle_line2": "2 66778  97.4427  64.4586 0003231  41.3734 318.7744 15.16535337  3043"
      },
      "geometry": {
        "type": "Point",
        "coordinates": [
          -122.4558292263996,
          -60.39746281386832
        ]
      }
    },
    {
      "type": "Feature",
      "properties": {
        "norad_id": 66791,
        "name": "STARLINK-35867",
        "group": "last-30-days",
        "lat": 6.338574920318977,
        "lon": -10.145491684955465,
        "alt_km": 433.51553531593163,
        "timestamp": "2025-12-25T07:41:08.449283+00:00",
        "meta_object_name": "STARLINK-35867",
        "meta_object_id": "2025-278A",
        "meta_epoch": "2025-12-24T22:00:03.000096",
        "meta_mean_motion": 15.4580032,
        "meta_eccentricity": 0.00018898,
        "meta_inclination": 43.0007,
        "meta_ra_of_asc_node": 179.0414,
        "meta_arg_of_pericenter": 278.8438,
        "meta_mean_anomaly": 164.754,
        "meta_ephemeris_type": 0,
        "meta_classification_type": "U",
        "meta_norad_cat_id": 66791,
        "meta_element_set_no": 999,
        "meta_rev_at_epoch": 491,
        "meta_bstar": -0.044987833,
        "meta_mean_motion_dot": -0.01992703,
        "meta_mean_motion_ddot": 0,
        "tle_line1": "1 66791U 25278A   25358.91670139 -.01992703  00000+0 -44988-1 0  9998",
        "tle_line2": "2 66791  43.0007 179.0414 0001889 278.8438 164.7540 15.45800320  4916"
      },
      "geometry": {
        "type": "Point",
        "coordinates": [
          -10.145491684955465,
          6.338574920318977
        ]
      }
    },
    {
      "type": "Feature",
      "properties": {
        "norad_id": 66792,
        "name": "STARLINK-35990",
        "group": "last-30-days",
        "lat": -6.702625895923644,
        "lon": 3.8979853468370953,
        "alt_km": 415.60296601095797,
        "timestamp": "2025-12-25T07:41:08.449293+00:00",
        "meta_object_name": "STARLINK-35990",
        "meta_object_id": "2025-278B",
        "meta_epoch": "2025-12-24T22:00:03.000096",
        "meta_mean_motion": 15.50564462,
        "meta_eccentricity": 0.00018935,
        "meta_inclination": 43.0003,
        "meta_ra_of_asc_node": 179.0138,
        "meta_arg_of_pericenter": 272.5471,
        "meta_mean_anomaly": 182.0065,
        "meta_ephemeris_type": 0,
        "meta_classification_type": "U",
        "meta_norad_cat_id": 66792,
        "meta_element_set_no": 999,
        "meta_rev_at_epoch": 491,
        "meta_bstar": -0.00019143767,
        "meta_mean_motion_dot": -0.0001155,
        "meta_mean_motion_ddot": 0,
        "tle_line1": "1 66792U 25278B   25358.91670139 -.00011550  00000+0 -19144-3 0  9998",
        "tle_line2": "2 66792  43.0003 179.0138 0001893 272.5471 182.0065 15.50564462  4914"
      },
      "geometry": {
        "type": "Point",
        "coordinates": [
          3.8979853468370953,
          -6.702625895923644
        ]
      }
    }
  ]
}